DELTA 2 R/B(1)          
1 20453U 90008B   25354.24389821  .00034193  00000+0  53658-3 0  9996
2 20453  35.6080 332.0527 0111150 246.6814 112.2190 15.45794805913793
COSMOS 2058             
1 20465U 90010A   25354.77354589  .00003622  00000+0  21781-3 0  9998
2 20465  82.4699 125.1286 0009008 240.8493 119.1836 15.10543852930329
SL-14 R/B               
1 20466U 90010B   25354.43486586  .00000339  00000+0  38245-4 0  9991
2 20466  82.5020 341.8195 0019286 196.6707 163.3877 14.83477819916733
SL-14 R/B               
1 20511U 90018B   25353.90384644  .00000369  00000+0  43412-4 0  9998
2 20511  82.5215 297.6685 0016383   0.3373 359.7849 14.82053578910765
HST                     
1 20580U 90037B   25352.01685449  .00005616  00000+0  19114-3 0  9994
2 20580  28.4674 236.5696 0001951 306.2349  53.8065 15.28122551760808
SL-16 R/B               
1 20625U 90046B   25354.66345987 -.00000274  00000+0 -11703-3 0  9990
2 20625  70.9992 103.8815 0012041  59.2567 300.9740 14.14998786837212
COSMOS 2084             
1 20663U 90055A   25354.07590915  .00001753  00000+0  13590-3 0  9997
2 20663  62.7898 246.9957 0030537 175.6588 184.4784 15.05059399924332
SL-6 R/B(2)             
1 20666U 90055D   25354.75062575  .00001382  00000+0  11641-3 0  9994
2 20666  62.7811 162.1951 0013583 314.3324  45.6661 15.03106505926328
SL-8 R/B                
1 20775U 90078B   25354.33956265  .00013457  00000+0  41583-3 0  9996
2 20775  82.9048 322.5052 0370798 280.3217  75.6403 14.86216440797509
SL-8 R/B                
1 21088U 91006B   25354.66850279  .00000112  00000+0  97467-4 0  9997
2 21088  82.9419 228.8153 0021176 256.2346 166.2735 13.77491463753198
OKEAN-3                 
1 21397U 91039A   25354.66514686  .00001842  00000+0  13056-3 0  9997
2 21397  82.5175  53.3770 0013487 235.7433 124.2517 15.04167523853155
COSMOS 2151             
1 21422U 91042A   25354.76325330  .00001309  00000+0  10378-3 0  9999
2 21422  82.4962 159.7709 0011891 331.9191  28.1390 14.99713703851369
